STARLINK-36645          
1 67707U 26025Q   26061.27614047  .00157054  00000+0  10332-2 0  9990
2 67707  97.2854 172.4960 0002384   8.6427 351.4879 15.75219067  4775
STARLINK-36287          
1 67708U 26025R   26061.56604954  .00323149  00000+0  16212-2 0  9992
2 67708  97.2861 172.8666 0002128  78.2969 281.8538 15.80881996  4838
STARLINK-36698          
1 67709U 26025S   26061.30591306  .00193241  00000+0  98321-3 0  9991
2 67709  97.2866 172.6071 0001838  76.3246 283.8227 15.80908930  4785
STARLINK-36344          
1 67710U 26025T   26061.58335648  .00074297  00000+0  49592-3 0  9993
2 67710  97.2848 172.8855 0001667  69.9055  29.1806 15.75130764  4875
STARLINK-36687          
1 67711U 26025U   26061.30822101  .00085837  00000+0  44355-3 0  9993
2 67711  97.2868 172.6042 0001287  91.0979 269.0436 15.80861570  4790
STARLINK-36705          
1 67712U 26025V   26061.57401716  .00223901  00000+0  14598-2 0  9999
2 67712  97.2868 172.8524 0003479 104.8941 255.2710 15.75236251  4827
STARLINK-36708          
1 67713U 26025W   26061.29741898  .00233537  00000+0  11811-2 0  9998
2 67713  97.2873 172.6168 0001244  34.3071 325.8277 15.80936476  4784
STARLINK-36702          
1 67714U 26025X   26061.55256864  .00246737  00000+0  12487-2 0  9998
2 67714  97.2874 172.8821 0002306 115.4826 244.6682 15.80887339  4829
STARLINK-36718          
1 67715U 26025Y   26061.29319543  .00206893  00000+0  10512-2 0  9990
2 67715  97.2870 172.6229 0001431  27.4633 332.6711 15.80904338  4787
STARLINK-36715          
1 67716U 26025Z   26061.29525943  .00141391  00000+0  72493-3 0  9992
2 67716  97.2873 172.6200 0001549  25.7871 334.3474 15.80878213  4782
STARLINK-36385          
1 67717U 26025AA  26061.55471552  .00230579  00000+0  11679-2 0  9993
2 67717  97.2870 172.8801 0002486 106.3663 253.7879 15.80910300  4827
CZ-2F DEB               
1 67718U 26024E   26058.50732833  .00191604  00000+0  35886-2 0  9997
2 67718  50.3169  68.5830 0246509 240.0171 117.6115 15.20915897  3086
