CCSDS_OMM_VERS = 2.0
CREATION_DATE  = 
ORIGINATOR     = 

OBJECT_NAME    = STARLINK-36645
OBJECT_ID      = 2026-025Q
CENTER_NAME    = EARTH
REF_FRAME      = TEME
TIME_SYSTEM    = UTC
MEAN_ELEMENT_THEORY = SGP/SGP4

EPOCH          = 2026-03-02T06:37:38.536608
MEAN_MOTION    = 15.75219067
ECCENTRICITY   = .00023849
INCLINATION    = 97.2854
RA_OF_ASC_NODE = 172.4960
ARG_OF_PERICENTER = 8.6427
MEAN_ANOMALY   = 351.4879

EPHEMERIS_TYPE = 0
CLASSIFICATION_TYPE = U
NORAD_CAT_ID   = 67707
ELEMENT_SET_NO = 999
REV_AT_EPOCH   = 477
BSTAR          = .10332106E-2
MEAN_MOTION_DOT = .157054E-2
MEAN_MOTION_DDOT = 0

CCSDS_OMM_VERS = 2.0
CREATION_DATE  = 
ORIGINATOR     = 

OBJECT_NAME    = STARLINK-36287
OBJECT_ID      = 2026-025R
CENTER_NAME    = EARTH
REF_FRAME      = TEME
TIME_SYSTEM    = UTC
MEAN_ELEMENT_THEORY = SGP/SGP4

EPOCH          = 2026-03-02T13:35:06.680256
MEAN_MOTION    = 15.80881996
ECCENTRICITY   = .0002128
INCLINATION    = 97.2861
RA_OF_ASC_NODE = 172.8666
ARG_OF_PERICENTER = 78.2969
MEAN_ANOMALY   = 281.8538

EPHEMERIS_TYPE = 0
CLASSIFICATION_TYPE = U
NORAD_CAT_ID   = 67708
ELEMENT_SET_NO = 999
REV_AT_EPOCH   = 483
BSTAR          = .16211833E-2
MEAN_MOTION_DOT = .323149E-2
MEAN_MOTION_DDOT = 0

CCSDS_OMM_VERS = 2.0
CREATION_DATE  = 
ORIGINATOR     = 

OBJECT_NAME    = STARLINK-36698
OBJECT_ID      = 2026-025S
CENTER_NAME    = EARTH
REF_FRAME      = TEME
TIME_SYSTEM    = UTC
MEAN_ELEMENT_THEORY = SGP/SGP4

EPOCH          = 2026-03-02T07:20:30.888384
MEAN_MOTION    = 15.80908930
ECCENTRICITY   = .00018388
INCLINATION    = 97.2866
RA_OF_ASC_NODE = 172.6071
ARG_OF_PERICENTER = 76.3246
MEAN_ANOMALY   = 283.8227

EPHEMERIS_TYPE = 0
CLASSIFICATION_TYPE = U
NORAD_CAT_ID   = 67709
ELEMENT_SET_NO = 999
REV_AT_EPOCH   = 478
BSTAR          = .98320685E-3
MEAN_MOTION_DOT = .193241E-2
MEAN_MOTION_DDOT = 0

CCSDS_OMM_VERS = 2.0
CREATION_DATE  = 
ORIGINATOR     = 

OBJECT_NAME    = STARLINK-36344
OBJECT_ID      = 2026-025T
CENTER_NAME    = EARTH
REF_FRAME      = TEME
TIME_SYSTEM    = UTC
MEAN_ELEMENT_THEORY = SGP/SGP4

EPOCH          = 2026-03-02T14:00:01.999872
MEAN_MOTION    = 15.75130764
ECCENTRICITY   = .00016677
INCLINATION    = 97.2848
RA_OF_ASC_NODE = 172.8855
ARG_OF_PERICENTER = 69.9055
MEAN_ANOMALY   = 29.1806

EPHEMERIS_TYPE = 0
CLASSIFICATION_TYPE = U
NORAD_CAT_ID   = 67710
ELEMENT_SET_NO = 999
REV_AT_EPOCH   = 487
BSTAR          = .49591894E-3
MEAN_MOTION_DOT = .74297E-3
MEAN_MOTION_DDOT = 0

CCSDS_OMM_VERS = 2.0
CREATION_DATE  = 
ORIGINATOR     = 

OBJECT_NAME    = STARLINK-36687
OBJECT_ID      = 2026-025U
CENTER_NAME    = EARTH
REF_FRAME      = TEME
TIME_SYSTEM    = UTC
MEAN_ELEMENT_THEORY = SGP/SGP4

EPOCH          = 2026-03-02T07:23:50.295264
MEAN_MOTION    = 15.80861570
ECCENTRICITY   = .00012876
INCLINATION    = 97.2868
RA_OF_ASC_NODE = 172.6042
ARG_OF_PERICENTER = 91.0979
MEAN_ANOMALY   = 269.0436

EPHEMERIS_TYPE = 0
CLASSIFICATION_TYPE = U
NORAD_CAT_ID   = 67711
ELEMENT_SET_NO = 999
REV_AT_EPOCH   = 479
BSTAR          = .44354984E-3
MEAN_MOTION_DOT = .85837E-3
MEAN_MOTION_DDOT = 0

CCSDS_OMM_VERS = 2.0
CREATION_DATE  = 
ORIGINATOR     = 

OBJECT_NAME    = STARLINK-36705
OBJECT_ID      = 2026-025V
CENTER_NAME    = EARTH
REF_FRAME      = TEME
TIME_SYSTEM    = UTC
MEAN_ELEMENT_THEORY = SGP/SGP4

EPOCH          = 2026-03-02T13:46:35.082624
MEAN_MOTION    = 15.75236251
ECCENTRICITY   = .00034793
INCLINATION    = 97.2868
RA_OF_ASC_NODE = 172.8524
ARG_OF_PERICENTER = 104.8941
MEAN_ANOMALY   = 255.2710

EPHEMERIS_TYPE = 0
CLASSIFICATION_TYPE = U
NORAD_CAT_ID   = 67712
ELEMENT_SET_NO = 999
REV_AT_EPOCH   = 482
BSTAR          = .1459826E-2
MEAN_MOTION_DOT = .223901E-2
MEAN_MOTION_DDOT = 0

CCSDS_OMM_VERS = 2.0
CREATION_DATE  = 
ORIGINATOR     = 

OBJECT_NAME    = STARLINK-36708
OBJECT_ID      = 2026-025W
CENTER_NAME    = EARTH
REF_FRAME      = TEME
TIME_SYSTEM    = UTC
MEAN_ELEMENT_THEORY = SGP/SGP4

EPOCH          = 2026-03-02T07:08:16.999872
MEAN_MOTION    = 15.80936476
ECCENTRICITY   = .00012445
INCLINATION    = 97.2873
RA_OF_ASC_NODE = 172.6168
ARG_OF_PERICENTER = 34.3071
MEAN_ANOMALY   = 325.8277

EPHEMERIS_TYPE = 0
CLASSIFICATION_TYPE = U
NORAD_CAT_ID   = 67713
ELEMENT_SET_NO = 999
REV_AT_EPOCH   = 478
BSTAR          = .11811066E-2
MEAN_MOTION_DOT = .233537E-2
MEAN_MOTION_DDOT = 0

CCSDS_OMM_VERS = 2.0
CREATION_DATE  = 
ORIGINATOR     = 

OBJECT_NAME    = STARLINK-36702
OBJECT_ID      = 2026-025X
CENTER_NAME    = EARTH
REF_FRAME      = TEME
TIME_SYSTEM    = UTC
MEAN_ELEMENT_THEORY = SGP/SGP4

EPOCH          = 2026-03-02T13:15:41.930496
MEAN_MOTION    = 15.80887339
ECCENTRICITY   = .00023065
INCLINATION    = 97.2874
RA_OF_ASC_NODE = 172.8821
ARG_OF_PERICENTER = 115.4826
MEAN_ANOMALY   = 244.6682

EPHEMERIS_TYPE = 0
CLASSIFICATION_TYPE = U
NORAD_CAT_ID   = 67714
ELEMENT_SET_NO = 999
REV_AT_EPOCH   = 482
BSTAR          = .12486674E-2
MEAN_MOTION_DOT = .246737E-2
MEAN_MOTION_DDOT = 0

CCSDS_OMM_VERS = 2.0
CREATION_DATE  = 
ORIGINATOR     = 

OBJECT_NAME    = STARLINK-36718
OBJECT_ID      = 2026-025Y
CENTER_NAME    = EARTH
REF_FRAME      = TEME
TIME_SYSTEM    = UTC
MEAN_ELEMENT_THEORY = SGP/SGP4

EPOCH          = 2026-03-02T07:02:12.085152
MEAN_MOTION    = 15.80904338
ECCENTRICITY   = .00014314
INCLINATION    = 97.2870
RA_OF_ASC_NODE = 172.6229
ARG_OF_PERICENTER = 27.4633
MEAN_ANOMALY   = 332.6711

EPHEMERIS_TYPE = 0
CLASSIFICATION_TYPE = U
NORAD_CAT_ID   = 67715
ELEMENT_SET_NO = 999
REV_AT_EPOCH   = 478
BSTAR          = .10511984E-2
MEAN_MOTION_DOT = .206893E-2
MEAN_MOTION_DDOT = 0

CCSDS_OMM_VERS = 2.0
CREATION_DATE  = 
ORIGINATOR     = 

OBJECT_NAME    = STARLINK-36715
OBJECT_ID      = 2026-025Z
CENTER_NAME    = EARTH
REF_FRAME      = TEME
TIME_SYSTEM    = UTC
MEAN_ELEMENT_THEORY = SGP/SGP4

EPOCH          = 2026-03-02T07:05:10.414752
MEAN_MOTION    = 15.80878213
ECCENTRICITY   = .00015495
INCLINATION    = 97.2873
RA_OF_ASC_NODE = 172.6200
ARG_OF_PERICENTER = 25.7871
MEAN_ANOMALY   = 334.3474

EPHEMERIS_TYPE = 0
CLASSIFICATION_TYPE = U
NORAD_CAT_ID   = 67716
ELEMENT_SET_NO = 999
REV_AT_EPOCH   = 478
BSTAR          = .72492787E-3
MEAN_MOTION_DOT = .141391E-2
MEAN_MOTION_DDOT = 0

CCSDS_OMM_VERS = 2.0
CREATION_DATE  = 
ORIGINATOR     = 

OBJECT_NAME    = STARLINK-36385
OBJECT_ID      = 2026-025AA
CENTER_NAME    = EARTH
REF_FRAME      = TEME
TIME_SYSTEM    = UTC
MEAN_ELEMENT_THEORY = SGP/SGP4

EPOCH          = 2026-03-02T13:18:47.420928
MEAN_MOTION    = 15.80910300
ECCENTRICITY   = .00024862
INCLINATION    = 97.2870
RA_OF_ASC_NODE = 172.8801
ARG_OF_PERICENTER = 106.3663
MEAN_ANOMALY   = 253.7879

EPHEMERIS_TYPE = 0
CLASSIFICATION_TYPE = U
NORAD_CAT_ID   = 67717
ELEMENT_SET_NO = 999
REV_AT_EPOCH   = 482
BSTAR          = .11678762E-2
MEAN_MOTION_DOT = .230579E-2
MEAN_MOTION_DDOT = 0

CCSDS_OMM_VERS = 2.0
CREATION_DATE  = 
ORIGINATOR     = 

OBJECT_NAME    = CZ-2F DEB
OBJECT_ID      = 2026-024E
CENTER_NAME    = EARTH
REF_FRAME      = TEME
TIME_SYSTEM    = UTC
MEAN_ELEMENT_THEORY = SGP/SGP4

EPOCH          = 2026-02-27T12:10:33.167712
MEAN_MOTION    = 15.20915897
ECCENTRICITY   = .02465096
INCLINATION    = 50.3169
RA_OF_ASC_NODE = 68.5830
ARG_OF_PERICENTER = 240.0171
MEAN_ANOMALY   = 117.6115

EPHEMERIS_TYPE = 0
CLASSIFICATION_TYPE = U
NORAD_CAT_ID   = 67718
ELEMENT_SET_NO = 999
REV_AT_EPOCH   = 308
BSTAR          = .35886422E-2
MEAN_MOTION_DOT = .191604E-2
MEAN_MOTION_DDOT = 0

